start=new Date('2022-02-17T00:00:00.000Z').valueOf();
sats=[{"GP_ID":"196090847","INCLINATION":"53.0549","TIME_SYSTEM":"UTC","LAUNCH_DATE":"2020-06-13","TLE_LINE2":"2 45776  53.0549  10.9683 0001595  55.1817 304.9321 15.06373271 93347","OBJECT_NAME":"STARLINK-1489","SITE":"AFETR","COUNTRY_CODE":"US","NORAD_CAT_ID":"45776","ECCENTRICITY":"0.00015950","RA_OF_ASC_NODE":"10.9683","MEAN_ELEMENT_THEORY":"SGP4","ARG_OF_PERICENTER":"55.1817","OBJECT_ID":"2020-038AY","FILE":"3301890","BSTAR":"0.00007333500000","SEMIMAJOR_AXIS":"6925.430","MEAN_ANOMALY":"304.9321","PERIOD":"95.594","CLASSIFICATION_TYPE":"U","EPOCH":"2022-02-16T09:03:57.750336","OBJECT_TYPE":"PAYLOAD","REF_FRAME":"TEME","APOAPSIS":"548.400","DECAY_DATE":null,"ELEMENT_SET_NO":"999","MEAN_MOTION":"15.06373271","RCS_SIZE":"LARGE","REV_AT_EPOCH":"9334","EPHEMERIS_TYPE":"0","CENTER_NAME":"EARTH","TLE_LINE1":"1 45776U 20038AY  22047.37775174  .00000810  00000-0  73335-4 0  9992","PERIAPSIS":"546.191","MEAN_MOTION_DOT":"0.00000810","MEAN_MOTION_DDOT":"0.0000000000000"},{"TLE_LINE2":"2 45777  53.0555  11.2978 0001890  60.1734 299.9443 15.06400489 93337","TIME_SYSTEM":"UTC","LAUNCH_DATE":"2020-06-13","INCLINATION":"53.0555","GP_ID":"196092101","SEMIMAJOR_AXIS":"6925.347","FILE":"3301890","BSTAR":"0.00023017000000","ARG_OF_PERICENTER":"60.1734","OBJECT_ID":"2020-038AZ","MEAN_ELEMENT_THEORY":"SGP4","RA_OF_ASC_NODE":"11.2978","NORAD_CAT_ID":"45777","ECCENTRICITY":"0.00018900","SITE":"AFETR","COUNTRY_CODE":"US","OBJECT_NAME":"STARLINK-1490","ELEMENT_SET_NO":"999","DECAY_DATE":null,"APOAPSIS":"548.521","REF_FRAME":"TEME","OBJECT_TYPE":"PAYLOAD","EPOCH":"2022-02-16T07:23:06.455904","CLASSIFICATION_TYPE":"U","PERIOD":"95.592","MEAN_ANOMALY":"299.9443","MEAN_MOTION_DDOT":"0.0000000000000","MEAN_MOTION_DOT":"0.00003148","PERIAPSIS":"545.903","TLE_LINE1":"1 45777U 20038AZ  22047.30771361  .00003148  00000-0  23017-3 0  9998","CENTER_NAME":"EARTH","EPHEMERIS_TYPE":"0","REV_AT_EPOCH":"9333","RCS_SIZE":"LARGE","MEAN_MOTION":"15.06400489"},{"INCLINATION":"53.0553","TLE_LINE2":"2 45778  53.0553   9.8834 0001583  70.6976 289.4184 15.06392437 93365","TIME_SYSTEM":"UTC","LAUNCH_DATE":"2020-06-13","GP_ID":"196130699","FILE":"3302660","BSTAR":"0.00009240600000","SEMIMAJOR_AXIS":"6925.372","MEAN_ELEMENT_THEORY":"SGP4","RA_OF_ASC_NODE":"9.8834","OBJECT_ID":"2020-038BA","ARG_OF_PERICENTER":"70.6976","SITE":"AFETR","COUNTRY_CODE":"US","ECCENTRICITY":"0.00015830","NORAD_CAT_ID":"45778","OBJECT_NAME":"STARLINK-1491","DECAY_DATE":null,"APOAPSIS":"548.333","ELEMENT_SET_NO":"999","EPOCH":"2022-02-16T14:54:14.941728","REF_FRAME":"TEME","OBJECT_TYPE":"PAYLOAD","CLASSIFICATION_TYPE":"U","PERIOD":"95.593","MEAN_ANOMALY":"289.4184","MEAN_MOTION_DOT":"0.00001095","PERIAPSIS":"546.140","MEAN_MOTION_DDOT":"0.0000000000000","TLE_LINE1":"1 45778U 20038BA  22047.62100627  .00001095  00000-0  92406-4 0  9993","EPHEMERIS_TYPE":"0","CENTER_NAME":"EARTH","MEAN_MOTION":"15.06392437","RCS_SIZE":"LARGE","REV_AT_EPOCH":"9336"},{"COUNTRY_CODE":"US","SITE":"AFETR","NORAD_CAT_ID":"45779","ECCENTRICITY":"0.00018890","OBJECT_NAME":"STARLINK-1492","FILE":"3302660","BSTAR":"0.00014444000000","SEMIMAJOR_AXIS":"6925.345","MEAN_ELEMENT_THEORY":"SGP4","RA_OF_ASC_NODE":"9.8972","ARG_OF_PERICENTER":"59.4256","OBJECT_ID":"2020-038BB","INCLINATION":"53.0532","TLE_LINE2":"2 45779  53.0532   9.8972 0001889  59.4256 300.6920 15.06401248 93366","LAUNCH_DATE":"2020-06-13","TIME_SYSTEM":"UTC","GP_ID":"196129447","EPHEMERIS_TYPE":"0","CENTER_NAME":"EARTH","MEAN_MOTION":"15.06401248","RCS_SIZE":"LARGE","REV_AT_EPOCH":"9336","MEAN_MOTION_DOT":"0.00001870","PERIAPSIS":"545.902","MEAN_MOTION_DDOT":"0.0000000000000","TLE_LINE1":"1 45779U 20038BB  22047.61731296  .00001870  00000-0  14444-3 0  9991","CLASSIFICATION_TYPE":"U","PERIOD":"95.592","MEAN_ANOMALY":"300.6920","DECAY_DATE":null,"APOAPSIS":"548.518","ELEMENT_SET_NO":"999","EPOCH":"2022-02-16T14:48:55.839744","REF_FRAME":"TEME","OBJECT_TYPE":"PAYLOAD"},{"ELEMENT_SET_NO":"999","DECAY_DATE":null,"APOAPSIS":"548.338","REF_FRAME":"TEME","OBJECT_TYPE":"PAYLOAD","EPOCH":"2022-02-16T21:27:01.319328","CLASSIFICATION_TYPE":"U","PERIOD":"95.593","MEAN_ANOMALY":"295.9003","MEAN_MOTION_DDOT":"0.0000000000000","MEAN_MOTION_DOT":"0.00002075","PERIAPSIS":"546.138","TLE_LINE1":"1 45780U 20038BC  22047.89376527  .00002075  00000-0  15821-3 0  9993","CENTER_NAME":"EARTH","EPHEMERIS_TYPE":"0","REV_AT_EPOCH":"9340","MEAN_MOTION":"15.06391983","RCS_SIZE":"LARGE","TLE_LINE2":"2 45780  53.0564   8.6700 0001588  64.2150 295.9003 15.06391983 93409","TIME_SYSTEM":"UTC","LAUNCH_DATE":"2020-06-13","INCLINATION":"53.0564","GP_ID":"196129198","SEMIMAJOR_AXIS":"6925.373","FILE":"3302660","BSTAR":"0.00015821000000","OBJECT_ID":"2020-038BC","ARG_OF_PERICENTER":"64.2150","MEAN_ELEMENT_THEORY":"SGP4","RA_OF_ASC_NODE":"8.6700","NORAD_CAT_ID":"45780","ECCENTRICITY":"0.00015880","COUNTRY_CODE":"US","SITE":"AFETR","OBJECT_NAME":"STARLINK-1496"},{"NORAD_CAT_ID":"45781","ECCENTRICITY":"0.00016380","SITE":"AFETR","COUNTRY_CODE":"US","OBJECT_NAME":"STARLINK-1497","SEMIMAJOR_AXIS":"6925.359","BSTAR":"-0.00000288770000","FILE":"3302660","ARG_OF_PERICENTER":"59.5017","OBJECT_ID":"2020-038BD","RA_OF_ASC_NODE":"10.0396","MEAN_ELEMENT_THEORY":"SGP4","LAUNCH_DATE":"2020-06-13","TIME_SYSTEM":"UTC","TLE_LINE2":"2 45781  53.0560  10.0396 0001638  59.5017 300.6134 15.06396482 93362","INCLINATION":"53.0560","GP_ID":"196130449","CENTER_NAME":"EARTH","EPHEMERIS_TYPE":"0","REV_AT_EPOCH":"9336","MEAN_MOTION":"15.06396482","RCS_SIZE":"LARGE","MEAN_MOTION_DDOT":"0.0000000000000","PERIAPSIS":"546.090","MEAN_MOTION_DOT":"-0.00000325","TLE_LINE1":"1 45781U 20038BD  22047.58783271 -.00000325  00000-0 -28877-5 0  9993","PERIOD":"95.592","CLASSIFICATION_TYPE":"U","MEAN_ANOMALY":"300.6134","ELEMENT_SET_NO":"999","APOAPSIS":"548.359","DECAY_DATE":null,"OBJECT_TYPE":"PAYLOAD","REF_FRAME":"TEME","EPOCH":"2022-02-16T14:06:28.746144"},{"EPHEMERIS_TYPE":"0","CENTER_NAME":"EARTH","MEAN_MOTION":"15.06389047","RCS_SIZE":"LARGE","REV_AT_EPOCH":"9337","MEAN_MOTION_DOT":"0.00000345","PERIAPSIS":"546.133","MEAN_MOTION_DDOT":"0.0000000000000","TLE_LINE1":"1 45782U 20038BE  22047.58047474  .00000345  00000-0  42074-4 0  9996","CLASSIFICATION_TYPE":"U","PERIOD":"95.593","MEAN_ANOMALY":"301.8524","DECAY_DATE":null,"APOAPSIS":"548.361","ELEMENT_SET_NO":"999","EPOCH":"2022-02-16T13:55:53.017536","REF_FRAME":"TEME","OBJECT_TYPE":"PAYLOAD","COUNTRY_CODE":"US","SITE":"AFETR","NORAD_CAT_ID":"45782","ECCENTRICITY":"0.00016090","OBJECT_NAME":"STARLINK-1498","BSTAR":"0.00004207400000","FILE":"3301890","SEMIMAJOR_AXIS":"6925.382","MEAN_ELEMENT_THEORY":"SGP4","RA_OF_ASC_NODE":"10.0722","ARG_OF_PERICENTER":"58.2622","OBJECT_ID":"2020-038BE","INCLINATION":"53.0563","TLE_LINE2":"2 45782  53.0563  10.0722 0001609  58.2622 301.8524 15.06389047 93371","TIME_SYSTEM":"UTC","LAUNCH_DATE":"2020-06-13","GP_ID":"196092352"},{"OBJECT_ID":"2020-038BF","ARG_OF_PERICENTER":"61.0682","MEAN_ELEMENT_THEORY":"SGP4","RA_OF_ASC_NODE":"10.0417","SEMIMAJOR_AXIS":"6925.380","BSTAR":"0.00000061641000","FILE":"3302660","OBJECT_NAME":"STARLINK-1505","NORAD_CAT_ID":"45783","ECCENTRICITY":"0.00015250","SITE":"AFETR","COUNTRY_CODE":"US","GP_ID":"196128948","TLE_LINE2":"2 45783  53.0576  10.0417 0001525  61.0682 299.0460 15.06389889 93373","TIME_SYSTEM":"UTC","LAUNCH_DATE":"2020-06-13","INCLINATION":"53.0576","TLE_LINE1":"1 45783U 20038BF  22047.58415969 -.00000272  00000-0  61641-6 0  9998","MEAN_MOTION_DDOT":"0.0000000000000","MEAN_MOTION_DOT":"-0.00000272","PERIAPSIS":"546.188","REV_AT_EPOCH":"9337","MEAN_MOTION":"15.06389889","RCS_SIZE":"LARGE","CENTER_NAME":"EARTH","EPHEMERIS_TYPE":"0","REF_FRAME":"TEME","OBJECT_TYPE":"PAYLOAD","EPOCH":"2022-02-16T14:01:11.397216","ELEMENT_SET_NO":"999","DECAY_DATE":null,"APOAPSIS":"548.301","MEAN_ANOMALY":"299.0460","CLASSIFICATION_TYPE":"U","PERIOD":"95.593"},{"LAUNCH_DATE":"2020-06-13","TIME_SYSTEM":"UTC","TLE_LINE2":"2 45784  53.0566   9.2835 0001546  61.4264 298.6880 15.06390507 93392","INCLINATION":"53.0566","GP_ID":"196129698","SEMIMAJOR_AXIS":"6925.378","FILE":"3302660","BSTAR":"0.00016285000000","OBJECT_ID":"2020-038BG","ARG_OF_PERICENTER":"61.4264","RA_OF_ASC_NODE":"9.2835","MEAN_ELEMENT_THEORY":"SGP4","NORAD_CAT_ID":"45784","ECCENTRICITY":"0.00015460","COUNTRY_CODE":"US","SITE":"AFETR","OBJECT_NAME":"STARLINK-1510","ELEMENT_SET_NO":"999","APOAPSIS":"548.313","DECAY_DATE":null,"OBJECT_TYPE":"PAYLOAD","REF_FRAME":"TEME","EPOCH":"2022-02-16T18:10:38.719776","PERIOD":"95.593","CLASSIFICATION_TYPE":"U","MEAN_ANOMALY":"298.6880","MEAN_MOTION_DDOT":"0.0000000000000","PERIAPSIS":"546.172","MEAN_MOTION_DOT":"0.00002144","TLE_LINE1":"1 45784U 20038BG  22047.75739259  .00002144  00000-0  16285-3 0  9999","CENTER_NAME":"EARTH","EPHEMERIS_TYPE":"0","REV_AT_EPOCH":"9339","MEAN_MOTION":"15.06390507","RCS_SIZE":"LARGE"},{"BSTAR":"0.00013457000000","FILE":"3302660","SEMIMAJOR_AXIS":"6925.363","RA_OF_ASC_NODE":"9.9439","MEAN_ELEMENT_THEORY":"SGP4","OBJECT_ID":"2020-038BH","ARG_OF_PERICENTER":"61.3588","SITE":"AFETR","COUNTRY_CODE":"US","NORAD_CAT_ID":"45785","ECCENTRICITY":"0.00017760","OBJECT_NAME":"STARLINK-1512","INCLINATION":"53.0551","TIME_SYSTEM":"UTC","LAUNCH_DATE":"2020-06-13","TLE_LINE2":"2 45785  53.0551   9.9439 0001776  61.3588 298.7579 15.06395213 93370","GP_ID":"196129950","PERIAPSIS":"545.998","MEAN_MOTION_DOT":"0.00001723","MEAN_MOTION_DDOT":"0.0000000000000","TLE_LINE1":"1 45785U 20038BH  22047.60627555  .00001723  00000-0  13457-3 0  9999","EPHEMERIS_TYPE":"0","CENTER_NAME":"EARTH","RCS_SIZE":"LARGE","MEAN_MOTION":"15.06395213","REV_AT_EPOCH":"9337","APOAPSIS":"548.458","DECAY_DATE":null,"ELEMENT_SET_NO":"999","EPOCH":"2022-02-16T14:33:02.207520","OBJECT_TYPE":"PAYLOAD","REF_FRAME":"TEME","PERIOD":"95.592","CLASSIFICATION_TYPE":"U","MEAN_ANOMALY":"298.7579"}];
